[{"OBJECT_NAME":"LPNTSAT-001 (IOD-1)","OBJECT_ID":"2026-065A","EPOCH":"2026-04-17T15:30:53.127936","MEAN_MOTION":15.18333868,"ECCENTRICITY":0.00161226,"INCLINATION":97.4099,"RA_OF_ASC_NODE":349.4201,"ARG_OF_PERICENTER":210.2902,"MEAN_ANOMALY":149.7402,"EPHEMERIS_TYPE":0,"CLASSIFICATION_TYPE":"U","NORAD_CAT_ID":68408,"ELEMENT_SET_NO":999,"REV_AT_EPOCH":307,"BSTAR":8.7535433e-5,"MEAN_MOTION_DOT":1.734e-5,"MEAN_MOTION_DDOT":0},{"OBJECT_NAME":"LPNTSAT-002 (IOD-2)","OBJECT_ID":"2026-065B","EPOCH":"2026-04-17T15:30:01.454688","MEAN_MOTION":15.1844968,"ECCENTRICITY":0.00132596,"INCLINATION":97.4087,"RA_OF_ASC_NODE":349.4181,"ARG_OF_PERICENTER":204.5317,"MEAN_ANOMALY":155.5288,"EPHEMERIS_TYPE":0,"CLASSIFICATION_TYPE":"U","NORAD_CAT_ID":68409,"ELEMENT_SET_NO":999,"REV_AT_EPOCH":305,"BSTAR":0.00020053886,"MEAN_MOTION_DOT":4.071e-5,"MEAN_MOTION_DDOT":0},{"OBJECT_NAME":"XINZHENGCHENG-01","OBJECT_ID":"2026-066A","EPOCH":"2026-04-19T06:25:44.452704","MEAN_MOTION":14.88353596,"ECCENTRICITY":0.0027634,"INCLINATION":84.9629,"RA_OF_ASC_NODE":265.2282,"ARG_OF_PERICENTER":98.2671,"MEAN_ANOMALY":262.1688,"EPHEMERIS_TYPE":0,"CLASSIFICATION_TYPE":"U","NORAD_CAT_ID":68412,"ELEMENT_SET_NO":999,"REV_AT_EPOCH":296,"BSTAR":3.8343298e-5,"MEAN_MOTION_DOT":3.88e-6,"MEAN_MOTION_DDOT":0},{"OBJECT_NAME":"TRANSPORTER-16 OBJECT A","OBJECT_ID":"2026-067A","EPOCH":"2026-04-17T19:39:59.511456","MEAN_MOTION":15.18682962,"ECCENTRICITY":0.0004046,"INCLINATION":97.4505,"RA_OF_ASC_NODE":67.2087,"ARG_OF_PERICENTER":107.6321,"MEAN_ANOMALY":252.5355,"EPHEMERIS_TYPE":0,"CLASSIFICATION_TYPE":"U","NORAD_CAT_ID":68416,"ELEMENT_SET_NO":999,"REV_AT_EPOCH":278,"BSTAR":0.0002538104,"MEAN_MOTION_DOT":5.196e-5,"MEAN_MOTION_DDOT":0},{"OBJECT_NAME":"JACK-002","OBJECT_ID":"2026-067B","EPOCH":"2026-04-17T19:41:00.489120","MEAN_MOTION":15.18618492,"ECCENTRICITY":0.00038926,"INCLINATION":97.4526,"RA_OF_ASC_NODE":67.212,"ARG_OF_PERICENTER":109.6101,"MEAN_ANOMALY":250.5554,"EPHEMERIS_TYPE":0,"CLASSIFICATION_TYPE":"U","NORAD_CAT_ID":68417,"ELEMENT_SET_NO":999,"REV_AT_EPOCH":278,"BSTAR":0.00024097368,"MEAN_MOTION_DOT":4.92e-5,"MEAN_MOTION_DDOT":0},{"OBJECT_NAME":"OPTISAT","OBJECT_ID":"2026-067C","EPOCH":"2026-04-17T19:42:13.698432","MEAN_MOTION":15.1851925,"ECCENTRICITY":0.00038541,"INCLINATION":97.4543,"RA_OF_ASC_NODE":67.2154,"ARG_OF_PERICENTER":121.0306,"MEAN_ANOMALY":239.1307,"EPHEMERIS_TYPE":0,"CLASSIFICATION_TYPE":"U","NORAD_CAT_ID":68418,"ELEMENT_SET_NO":999,"REV_AT_EPOCH":278,"BSTAR":0.00016026295,"MEAN_MOTION_DOT":3.24e-5,"MEAN_MOTION_DDOT":0},{"OBJECT_NAME":"TRANSPORTER-16 OBJECT D","OBJECT_ID":"2026-067D","EPOCH":"2026-04-17T19:42:00.927648","MEAN_MOTION":15.18529535,"ECCENTRICITY":0.00034302,"INCLINATION":97.45,"RA_OF_ASC_NODE":67.2061,"ARG_OF_PERICENTER":101.1674,"MEAN_ANOMALY":258.9946,"EPHEMERIS_TYPE":0,"CLASSIFICATION_TYPE":"U","NORAD_CAT_ID":68419,"ELEMENT_SET_NO":999,"REV_AT_EPOCH":278,"BSTAR":9.8232353e-5,"MEAN_MOTION_DOT":1.96e-5,"MEAN_MOTION_DDOT":0},{"OBJECT_NAME":"ERMIS-2","OBJECT_ID":"2026-067E","EPOCH":"2026-04-17T19:41:35.119104","MEAN_MOTION":15.18633539,"ECCENTRICITY":0.00036304,"INCLINATION":97.4448,"RA_OF_ASC_NODE":67.1953,"ARG_OF_PERICENTER":91.8754,"MEAN_ANOMALY":268.2896,"EPHEMERIS_TYPE":0,"CLASSIFICATION_TYPE":"U","NORAD_CAT_ID":68420,"ELEMENT_SET_NO":999,"REV_AT_EPOCH":278,"BSTAR":0.00034959337,"MEAN_MOTION_DOT":7.174e-5,"MEAN_MOTION_DDOT":0},{"OBJECT_NAME":"TRANSPORTER-16 OBJECT F","OBJECT_ID":"2026-067F","EPOCH":"2026-04-17T19:45:01.340352","MEAN_MOTION":15.18349018,"ECCENTRICITY":0.00029359,"INCLINATION":97.4475,"RA_OF_ASC_NODE":67.198,"ARG_OF_PERICENTER":93.6919,"MEAN_ANOMALY":266.4651,"EPHEMERIS_TYPE":0,"CLASSIFICATION_TYPE":"U","NORAD_CAT_ID":68421,"ELEMENT_SET_NO":999,"REV_AT_EPOCH":278,"BSTAR":0.00015777427,"MEAN_MOTION_DOT":3.173e-5,"MEAN_MOTION_DDOT":0},{"OBJECT_NAME":"TRANSPORTER-16 OBJECT G","OBJECT_ID":"2026-067G","EPOCH":"2026-04-18T13:09:29.886048","MEAN_MOTION":15.18333514,"ECCENTRICITY":0.00028439,"INCLINATION":97.4442,"RA_OF_ASC_NODE":67.9033,"ARG_OF_PERICENTER":89.3181,"MEAN_ANOMALY":270.8379,"EPHEMERIS_TYPE":0,"CLASSIFICATION_TYPE":"U","NORAD_CAT_ID":68422,"ELEMENT_SET_NO":999,"REV_AT_EPOCH":289,"BSTAR":0.00026795157,"MEAN_MOTION_DOT":5.434e-5,"MEAN_MOTION_DDOT":0},{"OBJECT_NAME":"TRANSPORTER-16 OBJECT H","OBJECT_ID":"2026-067H","EPOCH":"2026-04-17T19:46:31.910880","MEAN_MOTION":15.18272825,"ECCENTRICITY":0.00025564,"INCLINATION":97.4463,"RA_OF_ASC_NODE":67.1936,"ARG_OF_PERICENTER":100.5629,"MEAN_ANOMALY":259.5893,"EPHEMERIS_TYPE":0,"CLASSIFICATION_TYPE":"U","NORAD_CAT_ID":68423,"ELEMENT_SET_NO":999,"REV_AT_EPOCH":278,"BSTAR":0.00019129889,"MEAN_MOTION_DOT":3.853e-5,"MEAN_MOTION_DDOT":0},{"OBJECT_NAME":"TRANSPORTER-16 OBJECT J","OBJECT_ID":"2026-067J","EPOCH":"2026-04-17T21:30:36.974592","MEAN_MOTION":15.17757049,"ECCENTRICITY":4.62e-5,"INCLINATION":97.4481,"RA_OF_ASC_NODE":67.2538,"ARG_OF_PERICENTER":175.424,"MEAN_ANOMALY":184.6999,"EPHEMERIS_TYPE":0,"CLASSIFICATION_TYPE":"U","NORAD_CAT_ID":68424,"ELEMENT_SET_NO":999,"REV_AT_EPOCH":279,"BSTAR":0.00021396989,"MEAN_MOTION_DOT":4.253e-5,"MEAN_MOTION_DDOT":0},{"OBJECT_NAME":"ERMIS-3","OBJECT_ID":"2026-067K","EPOCH":"2026-04-17T19:48:00.507168","MEAN_MOTION":15.18188949,"ECCENTRICITY":0.00024211,"INCLINATION":97.4547,"RA_OF_ASC_NODE":67.211,"ARG_OF_PERICENTER":130.6704,"MEAN_ANOMALY":229.4741,"EPHEMERIS_TYPE":0,"CLASSIFICATION_TYPE":"U","NORAD_CAT_ID":68425,"ELEMENT_SET_NO":999,"REV_AT_EPOCH":278,"BSTAR":0.00018195425,"MEAN_MOTION_DOT":3.652e-5,"MEAN_MOTION_DDOT":0},{"OBJECT_NAME":"TRANSPORTER-16 OBJECT L","OBJECT_ID":"2026-067L","EPOCH":"2026-04-18T14:44:26.827296","MEAN_MOTION":15.18439278,"ECCENTRICITY":0.00026414,"INCLINATION":97.4512,"RA_OF_ASC_NODE":67.9838,"ARG_OF_PERICENTER":131.8939,"MEAN_ANOMALY":228.2521,"EPHEMERIS_TYPE":0,"CLASSIFICATION_TYPE":"U","NORAD_CAT_ID":68426,"ELEMENT_SET_NO":999,"REV_AT_EPOCH":290,"BSTAR":0.0005143866,"MEAN_MOTION_DOT":0.00010532,"MEAN_MOTION_DDOT":0}]
